STARLINK-2284
1 18016C 21024AR  21326.19376615 -.00016955  00000-0 -11362-2 0  3267
2 18016  53.0546  92.8562 0001023  93.2756 313.0823 15.06410869    15
